STARLINK-33898          
1 64002U 25101J   26068.18167243  .00035724  00000+0  13009-2 0  9990
2 64002  43.0071   1.1709 0002213 260.0031 100.0571 15.27592458 46975
REAL                    
1 64875U 25154G   26068.72233414  .00022901  00000+0  82904-3 0  9994
2 64875  97.4133 137.2581 0001853 118.5876 241.5550 15.28408058 34830
